[{"OBJECT_NAME":"STARLINK-30327","OBJECT_ID":"2023-129K","EPOCH":"2026-03-09T12:25:28.993152","MEAN_MOTION":15.26626807,"ECCENTRICITY":0.00230309,"INCLINATION":42.9974,"RA_OF_ASC_NODE":85.9834,"ARG_OF_PERICENTER":70.832,"MEAN_ANOMALY":289.5022,"EPHEMERIS_TYPE":0,"CLASSIFICATION_TYPE":"U","NORAD_CAT_ID":57707,"ELEMENT_SET_NO":999,"REV_AT_EPOCH":14090,"BSTAR":0.00029313824,"MEAN_MOTION_DOT":7.635e-5,"MEAN_MOTION_DDOT":0},{"OBJECT_NAME":"STARLINK-34704","OBJECT_ID":"2025-216N","EPOCH":"2026-03-09T21:36:08.839584","MEAN_MOTION":15.30187468,"ECCENTRICITY":0.00013845,"INCLINATION":53.1585,"RA_OF_ASC_NODE":332.0662,"ARG_OF_PERICENTER":84.972,"MEAN_ANOMALY":275.1439,"EPHEMERIS_TYPE":0,"CLASSIFICATION_TYPE":"U","NORAD_CAT_ID":65746,"ELEMENT_SET_NO":999,"REV_AT_EPOCH":2656,"BSTAR":0.0012704369,"MEAN_MOTION_DOT":0.00037443,"MEAN_MOTION_DDOT":0}]
